NORAD_CAT_ID,OBJECT_NAME,OBJECT_TYPE,EPOCH,MEAN_MOTION,ECCENTRICITY,INCLINATION,RA_OF_ASC_NODE,ARG_OF_PERICENTER,MEAN_ANOMALY,BSTAR,MEAN_MOTION_DOT,MEAN_MOTION_DDOT,TLE_LINE0,TLE_LINE1,TLE_LINE2,SEMIMAJOR_AXIS,PERIOD,APOGEE,PERIGEE,DECAYED
52341.0,STARLINK-3843,PAYLOAD,2023-04-06 21:38:30,15.08825978,8.36e-05,53.2157,322.5552,83.3319,276.7768,-5.7267e-05,-1.199e-05,0.0,0 STARLINK-3843,1 52341U 22045L   23096.90174452 -.00001199  00000-0 -57267-4 0  9993,2 52341  53.2157 322.5552 0000836  83.3319 276.7768 15.08825978 54441,6917.923,95.438,540.367,539.21,0.0
52341.0,STARLINK-3843,PAYLOAD,2023-04-07 00:49:17,15.08828783,0.0001189,53.2168,321.9628,73.9656,286.1467,-3.8285e-05,-8.97e-06,0.0,0 STARLINK-3843,1 52341U 22045L   23097.03422550 -.00000897  00000-0 -38285-4 0  9996,2 52341  53.2168 321.9628 0001189  73.9656 286.1467 15.08828783 54461,6917.915,95.438,540.602,538.957,0.0
52341.0,STARLINK-3843,PAYLOAD,2023-04-07 21:29:17,15.08855122,8.72e-05,53.2152,318.0952,72.0958,288.0129,0.00082297,0.00012839,0.0,0 STARLINK-3843,1 52341U 22045L   23097.89534224  .00012839  00000-0  82297-3 0  9990,2 52341  53.2152 318.0952 0000872  72.0958 288.0129 15.08855122 54591,6917.834,95.437,540.302,539.096,0.0
52341.0,STARLINK-3843,PAYLOAD,2023-04-08 00:40:03,15.08868052,9.81e-05,53.2159,317.5008,77.8456,282.2646,0.0010876,0.00017077,0.0,0 STARLINK-3843,1 52341U 22045L   23098.02781999  .00017077  00000-0  10876-2 0  9991,2 52341  53.2159 317.5008 0000981  77.8456 282.2646 15.08868052 54610,6917.795,95.436,540.338,538.981,0.0
52341.0,STARLINK-3843,PAYLOAD,2023-04-08 21:20:03,15.08869097,9.62e-05,53.2148,313.6337,87.3014,272.8088,0.00071227,0.00011075,0.0,0 STARLINK-3843,1 52341U 22045L   23098.88893153  .00011075  00000-0  71227-3 0  9991,2 52341  53.2148 313.6337 0000962  87.3014 272.8088 15.08869097 54744,6917.791,95.436,540.322,538.991,0.0
52341.0,STARLINK-3843,PAYLOAD,2023-04-09 02:06:12,15.0887186,9.5e-05,53.2156,312.7425,88.5031,271.607,0.00079254,0.00012359,0.0,0 STARLINK-3843,1 52341U 22045L   23099.08764849  .00012359  00000-0  79254-3 0  9997,2 52341  53.2156 312.7425 0000950  88.5031 271.6070 15.08871860 54772,6917.783,95.436,540.305,538.991,0.0
52341.0,STARLINK-3843,PAYLOAD,2023-04-09 21:10:50,15.08851178,0.0001255,53.2153,309.1742,107.077,253.0359,0.00069143,0.00010737,0.0,0 STARLINK-3843,1 52341U 22045L   23099.88253083  .00010737  00000-0  69143-3 0  9992,2 52341  53.2153 309.1742 0001255 107.0770 253.0359 15.08851178 54894,6917.846,95.437,540.579,538.843,0.0
52341.0,STARLINK-3843,PAYLOAD,2023-04-09 22:46:13,15.08852245,9.83e-05,53.2153,308.8768,100.6084,259.5018,0.00077721,0.00012107,0.0,0 STARLINK-3843,1 52341U 22045L   23099.94877088  .00012107  00000-0  77721-3 0  9990,2 52341  53.2153 308.8768 0000983 100.6084 259.5018 15.08852245 54903,6917.843,95.437,540.388,539.028,0.0
52341.0,STARLINK-3843,PAYLOAD,2023-04-10 14:40:05,15.0884723,0.0001107,53.2152,305.902,98.788,261.3238,0.00086224,0.00013464,0.0,0 STARLINK-3843,1 52341U 22045L   23100.61117180  .00013464  00000-0  86224-3 0  9992,2 52341  53.2152 305.9020 0001107  98.7880 261.3238 15.08847230 55006,6917.858,95.437,540.489,538.957,0.0
52341.0,STARLINK-3843,PAYLOAD,2023-04-11 12:55:29,15.08840809,0.0002499,53.2142,301.7393,86.9212,273.2066,0.00041617,6.342e-05,0.0,0 STARLINK-3843,1 52341U 22045L   23101.53853482  .00006342  00000-0  41617-3 0  9990,2 52341  53.2142 301.7393 0002499  86.9212 273.2066 15.08840809 55146,6917.878,95.438,541.472,538.014,0.0
52341.0,STARLINK-3843,PAYLOAD,2023-04-11 14:30:52,15.08841059,0.000108,53.2149,301.4417,104.3928,255.7183,0.00016759,2.38e-05,0.0,0 STARLINK-3843,1 52341U 22045L   23101.60477199  .00002380  00000-0  16759-3 0  9992,2 52341  53.2149 301.4417 0001080 104.3928 255.7183 15.08841059 55155,6917.877,95.437,540.489,538.995,0.0
52341.0,STARLINK-3843,PAYLOAD,2023-04-12 12:46:16,15.08838885,0.0001369,53.2131,297.2769,99.6275,260.4871,0.00024192,3.564e-05,0.0,0 STARLINK-3843,1 52341U 22045L   23102.53213548  .00003564  00000-0  24192-3 0  9996,2 52341  53.2131 297.2769 0001369  99.6275 260.4871 15.08838885 55294,6917.884,95.438,540.696,538.802,0.0
52341.0,STARLINK-3843,PAYLOAD,2023-04-13 06:15:31,15.08842057,0.0001545,53.2165,294.0087,79.7081,280.4085,0.00023978,3.53e-05,0.0,0 STARLINK-3843,1 52341U 22045L   23103.26077568  .00003530  00000-0  23978-3 0  9991,2 52341  53.2165 294.0087 0001545  79.7081 280.4085 15.08842057 55407,6917.874,95.437,540.808,538.67,0.0
52341.0,STARLINK-3843,PAYLOAD,2023-04-13 18:58:35,15.0885102,0.0001036,53.215,291.6289,89.4037,270.7074,0.00036707,5.561e-05,0.0,0 STARLINK-3843,1 52341U 22045L   23103.79069214  .00005561  00000-0  36707-3 0  9998,2 52341  53.2150 291.6289 0001036  89.4037 270.7074 15.08851020 55480,6917.847,95.437,540.428,538.995,0.0
52341.0,STARLINK-3843,PAYLOAD,2023-04-14 12:27:50,15.08846312,7.19e-05,53.2154,288.3585,316.051,44.0425,0.00027021,4.016e-05,0.0,0 STARLINK-3843,1 52341U 22045L   23104.51933318  .00004016  00000-0  27021-3 0  9997,2 52341  53.2154 288.3585 0000719 316.0510  44.0425 15.08846312 55590,6917.861,95.437,540.223,539.229,0.0
52341.0,STARLINK-3843,PAYLOAD,2023-04-14 18:49:22,15.08844913,5.2e-05,53.2193,287.1712,31.6077,328.4946,0.00014371,2.001e-05,0.0,0 STARLINK-3843,1 52341U 22045L   23104.78429331  .00002001  00000-0  14371-3 0  9997,2 52341  53.2193 287.1712 0000520  31.6077 328.4946 15.08844913 55637,6917.865,95.437,540.09,539.371,0.0
52341.0,STARLINK-3843,PAYLOAD,2023-04-15 12:18:37,15.08839651,0.0001395,53.2144,283.8966,86.9327,273.1825,9.5152e-05,1.227e-05,0.0,0 STARLINK-3843,1 52341U 22045L   23105.51293599  .00001227  00000-0  95152-4 0  9990,2 52341  53.2144 283.8966 0001395  86.9327 273.1825 15.08839651 55746,6917.881,95.438,540.712,538.781,0.0
52341.0,STARLINK-3843,PAYLOAD,2023-04-15 20:15:33,15.08841364,0.0001097,53.2159,282.4116,69.447,290.664,0.00010445,1.375e-05,0.0,0 STARLINK-3843,1 52341U 22045L   23105.84413563  .00001375  00000-0  10445-3 0  9996,2 52341  53.2159 282.4116 0001097  69.4470 290.6640 15.08841364 55796,6917.876,95.437,540.5,538.982,0.0
52341.0,STARLINK-3843,PAYLOAD,2023-04-16 12:09:24,15.0883955,0.000112,53.2154,279.437,66.7444,293.3666,0.00010727,1.42e-05,0.0,0 STARLINK-3843,1 52341U 22045L   23106.50653758  .00001420  00000-0  10727-3 0  9996,2 52341  53.2154 279.4370 0001120  66.7444 293.3666 15.08839550 55890,6917.882,95.438,540.522,538.972,0.0
52341.0,STARLINK-3843,PAYLOAD,2023-04-16 20:06:20,15.08849294,0.0001323,53.2154,277.9513,68.5991,291.5142,0.00031498,4.73e-05,0.0,0 STARLINK-3843,1 52341U 22045L   23106.83773426  .00004730  00000-0  31498-3 0  9992,2 52341  53.2154 277.9513 0001323  68.5991 291.5142 15.08849294 55945,6917.852,95.437,540.632,538.802,0.0
52341.0,STARLINK-3843,PAYLOAD,2023-04-17 04:03:16,15.08829556,0.0001226,53.2146,276.4626,68.6186,291.4937,-0.00021123,-3.647e-05,0.0,0 STARLINK-3843,1 52341U 22045L   23107.16893997 -.00003647  00000-0 -21123-3 0  9997,2 52341  53.2146 276.4626 0001226  68.6186 291.4937 15.08829556 55999,6917.912,95.438,540.625,538.929,0.0
52341.0,STARLINK-3843,PAYLOAD,2023-04-17 21:32:30,15.08855199,0.000121,53.2146,273.1921,69.816,290.2962,0.00083138,0.00012974,0.0,0 STARLINK-3843,1 52341U 22045L   23107.89757589  .00012974  00000-0  83138-3 0  9998,2 52341  53.2146 273.1921 0001210  69.8160 290.2962 15.08855199 56100,6917.834,95.437,540.536,538.862,0.0
52341.0,STARLINK-3843,PAYLOAD,2023-04-18 03:54:03,15.0883829,0.0001066,53.2152,272.002,61.6425,298.4674,0.00027335,4.065e-05,0.0,0 STARLINK-3843,1 52341U 22045L   23108.16253860  .00004065  00000-0  27335-3 0  9991,2 52341  53.2152 272.0020 0001066  61.6425 298.4674 15.08838290 56145,6917.886,95.438,540.488,539.013,0.0
52341.0,STARLINK-3843,PAYLOAD,2023-04-18 19:47:54,15.08857946,0.000124,53.215,269.0286,64.8319,295.2801,0.00097756,0.00015312,0.0,0 STARLINK-3843,1 52341U 22045L   23108.82493736  .00015312  00000-0  97756-3 0  9993,2 52341  53.2150 269.0286 0001240  64.8319 295.2801 15.08857946 56241,6917.826,95.436,540.548,538.833,0.0
52341.0,STARLINK-3843,PAYLOAD,2023-04-19 10:06:22,15.08838979,4.63e-05,53.2151,266.3533,88.5775,271.527,0.00082661,0.00012892,0.0,0 STARLINK-3843,1 52341U 22045L   23109.42109873  .00012892  00000-0  82661-3 0  9995,2 52341  53.2151 266.3533 0000463  88.5775 271.5270 15.08838979 56334,6917.884,95.438,540.069,539.428,0.0
52341.0,STARLINK-3843,PAYLOAD,2023-04-19 16:27:55,15.08847405,6.82e-05,53.2143,265.1629,77.2179,282.8889,0.001505,0.0002375,0.0,0 STARLINK-3843,1 52341U 22045L   23109.68605909  .00023750  00000-0  15050-2 0  9996,2 52341  53.2143 265.1629 0000682  77.2179 282.8889 15.08847405 56373,6917.858,95.437,540.195,539.251,0.0
52341.0,STARLINK-3843,PAYLOAD,2023-04-20 09:57:10,15.08841273,0.0001058,53.2155,261.8911,83.0783,277.033,0.0006495,0.00010064,0.0,0 STARLINK-3843,1 52341U 22045L   23110.41470247  .00010064  00000-0  64950-3 0  9992,2 52341  53.2155 261.8911 0001058  83.0783 277.0330 15.08841273 56483,6917.876,95.437,540.473,539.01,0.0
52341.0,STARLINK-3843,PAYLOAD,2023-04-20 16:18:43,15.08841821,0.0001535,53.2166,260.7045,62.7574,297.3575,0.00080038,0.00012474,0.0,0 STARLINK-3843,1 52341U 22045L   23110.67966475  .00012474  00000-0  80038-3 0  9995,2 52341  53.2166 260.7045 0001535  62.7574 297.3575 15.08841821 56523,6917.875,95.437,540.802,538.678,0.0
52341.0,STARLINK-3843,PAYLOAD,2023-04-20 21:04:52,15.08850857,0.0001131,53.2158,259.8087,75.2223,284.8894,0.0008033,0.00012523,0.0,0 STARLINK-3843,1 52341U 22045L   23110.87838237  .00012523  00000-0  80330-3 0  9991,2 52341  53.2158 259.8087 0001131  75.2223 284.8894 15.08850857 56558,6917.847,95.437,540.495,538.93,0.0
52341.0,STARLINK-3843,PAYLOAD,2023-04-21 03:26:12,15.09284878,0.000139,53.215,258.6198,292.4905,67.594,0.013844,0.00230109,0.0,0 STARLINK-3843,1 52341U 22045L   23111.14320572  .00230109  00000-0  13844-1 0  9996,2 52341  53.2150 258.6198 0001390 292.4905  67.5940 15.09284878 56594,6916.521,95.409,539.347,537.425,0.0
